     2.11           N: GPS NAV DATA                         RINEX VERSION / TYPE
teqc  2019Feb25     CORS-ADM Account    20260516 02:45:01UTCPGM / RUN BY / DATE
Linux 2.4.21-27.ELsmp|Opteron|gcc|Linux 64|=+               COMMENT
     2.10           N: GPS NAV DATA                         COMMENT
rvacn.e(1404.07)                        2026-05-16T02:27 UTCCOMMENT
This file contains the validated broadcast navigation       COMMENT
messages from the following files:                          COMMENT
aaaa1360.26n, abmf136b.26n, abpo136b.26n, albh136b.26n,     COMMENT
alic136b.26n, areq136b.26n, baie136b.26n, brew136b.26n,     COMMENT
brst136b.26n, brux136b.26n, bshm136b.26n, bucu136b.26n,     COMMENT
cebr136b.26n, chpi136b.26n, chum136b.26n, chur136b.26n,     COMMENT
ckis136b.26n, coco136b.26n, cro1136b.26n, darw136b.26n,     COMMENT
dav1136b.26n, dgar136b.26n, djig136b.26n, dlf1136b.26n,     COMMENT
drao136b.26n, dubo136b.26n, ebre136b.26n, fair136b.26n,     COMMENT
falk136b.26n, flin136b.26n, glps136b.26n, glsv136b.26n,     COMMENT
gode136b.26n, guam136b.26n, harb136b.26n, hers136b.26n,     COMMENT
hlfx136b.26n, hob2136b.26n, hofn136b.26n, holb136b.26n,     COMMENT
hrao136b.26n, iisc136b.26n, iqal136b.26n, ista136b.26n,     COMMENT
joze136b.26n, jplm136b.26n, karr136b.26n, kat1136b.26n,     COMMENT
kiri136b.26n, kiru136b.26n, kokb136b.26n, koug136b.26n,     COMMENT
kour136b.26n, lmmf136b.26n, lpal136b.26n, m0se136b.26n,     COMMENT
mac1136b.26n, maju136b.26n, mal2136b.26n, mar6136b.26n,     COMMENT
mas1136b.26n, mat1136b.26n, mate136b.26n, maw1136b.26n,     COMMENT
mcm4136b.26n, mdo1136b.26n, medi136b.26n, met3136b.26n,     COMMENT
mkea136b.26n, mobs136b.26n, mro1136b.26n, nain136b.26n,     COMMENT
nano136b.26n, naur136b.26n, nico136b.26n, nist136b.26n,     COMMENT
nklg136b.26n, nlib136b.26n, nnor136b.26n, not1136b.26n,     COMMENT
nrc1136b.26n, onsa136b.26n, orid136b.26n, palm136b.26n,     COMMENT
pert136b.26n, picl136b.26n, pie1136b.26n, pimo136b.26n,     COMMENT
pohn136b.26n, prds136b.26n, ptvl136b.26n, qaq1136b.26n,     COMMENT
qiki136b.26n, reso136b.26n, reun136b.26n, reyk136b.26n,     COMMENT
riga136b.26n, sant136b.26n, sask136b.26n, sch2136b.26n,     COMMENT
scor136b.26n, seyg136b.26n, solo136b.26n, stj3136b.26n,     COMMENT
stjo136b.26n, stpm136b.26n, suth136b.26n, suwn136b.26n,     COMMENT
sydn136b.26n, thtg136b.26n, thu2136b.26n, tid1136b.26n,     COMMENT
tow2136b.26n, tuva136b.26n, unbj136b.26n, usud136b.26n,     COMMENT
vacs136b.26n, vald136b.26n, vill136b.26n, vis0136b.26n,     COMMENT
warn136b.26n, whit136b.26n, will136b.26n, wsrt136b.26n,     COMMENT
wtzr136b.26n, xmis136b.26n, yar2136b.26n, yarr136b.26n,     COMMENT
yebe136b.26n, yell136b.26n, zim2136b.26n, zimm136b.26n      COMMENT
    1.1180D-08  2.2350D-08 -5.9600D-08 -1.1920D-07          ION ALPHA
    9.8300D+04  1.3110D+05 -1.3110D+05 -5.8980D+05          ION BETA
    1.862645149230D-09 0.000000000000D+00    61440     2419 DELTA-UTC: A0,A1,T,W
                                                            END OF HEADER
 4 26  5 15 22  0  0.0 5.709473043680D-05 1.250555214938D-12 0.000000000000D+00
    1.060000000000D+02 2.100000000000D+01 4.549118060456D-09 4.864892759796D-01
    1.074746251106D-06 3.726834198460D-03 8.294358849525D-06 5.153696605682D+03
    5.112000000000D+05 1.117587089539D-08-2.343910914212D+00-3.911554813385D-08
    9.714033636949D-01 2.209687500000D+02-2.876982525687D+00-7.941402219850D-09
    5.168072413817D-10 1.000000000000D+00 2.418000000000D+03 0.000000000000D+00
    2.000000000000D+00 0.000000000000D+00-4.656612873077D-09 6.180000000000D+02
    5.040000000000D+05
 5 26  5 15 22  0  0.0-2.330094575882D-04-4.547473508865D-13 0.000000000000D+00
    9.900000000000D+01-1.169375000000D+02 3.952664644348D-09 1.126456729901D+00
   -6.075948476791D-06 5.566986044869D-03 1.187063753605D-05 5.153747722626D+03
    5.112000000000D+05-1.210719347000D-07 2.809960224179D+00-4.656612873077D-08
    9.809778479964D-01 1.646875000000D+02 1.433382282583D+00-7.705678115281D-09
    4.643050544549D-11 1.000000000000D+00 2.418000000000D+03 0.000000000000D+00
    2.000000000000D+00 0.000000000000D+00-1.071020960808D-08 9.900000000000D+01
    5.040230000000D+05 4.000000000000D+00
 6 26  5 15 22  0  0.0-6.030136719346D-04 3.751665644813D-12 0.000000000000D+00
    8.700000000000D+01-8.378125000000D+01 4.239462304908D-09-1.185389417736D+00
   -4.665926098824D-06 3.728428506292D-03 1.490116119385D-06 5.153682136536D+03
    5.112000000000D+05 5.587935447693D-09 1.833401940939D+00-8.940696716309D-08
    9.859840692341D-01 3.642500000000D+02-5.287205068971D-01-8.301774373654D-09
   -9.893269237232D-11 1.000000000000D+00 2.418000000000D+03 0.000000000000D+00
    2.000000000000D+00 0.000000000000D+00 3.725290298462D-09 8.700000000000D+01
    5.040000000000D+05
 7 26  5 15 22  0  0.0-1.850682310760D-04-4.433786671143D-12 0.000000000000D+00
    1.060000000000D+02-2.768750000000D+01 5.062353724495D-09-2.004430944572D+00
   -1.411885023117D-06 2.085925650317D-02 4.881992936134D-06 5.153591863632D+03
    5.112000000000D+05 3.129243850708D-07-1.335572576050D+00-6.519258022308D-08
    9.505330481454D-01 2.755625000000D+02-1.968587074388D+00-7.994975879979D-09
   -3.714440435639D-10 1.000000000000D+00 2.418000000000D+03 0.000000000000D+00
    2.000000000000D+00 0.000000000000D+00-1.071020960808D-08 1.060000000000D+02
    5.053990000000D+05 4.000000000000D+00
 9 26  5 15 22  0  0.0 7.496564649045D-04-4.320099833421D-12 0.000000000000D+00
    7.800000000000D+01 2.365625000000D+01 4.550546691392D-09 1.391838887951D+00
    1.065433025360D-06 3.418796462938D-03 8.884817361832D-06 5.153732965469D+03
    5.112000000000D+05 2.793967723846D-08-2.408641106896D+00-1.024454832077D-07
    9.656979553903D-01 2.077812500000D+02 2.038305747502D+00-7.879613931834D-09
    5.843100531448D-10 1.000000000000D+00 2.418000000000D+03 0.000000000000D+00
    2.000000000000D+00 0.000000000000D+00 4.656612873077D-10 7.800000000000D+01
    5.040000000000D+05
11 26  5 15 22  0  0.0-3.391341306269D-04 1.261923898710D-11 0.000000000000D+00
    1.630000000000D+02-8.596875000000D+01 4.753412284416D-09 1.888611879694D-02
   -4.541128873825D-06 2.287227544002D-03 1.298263669014D-06 5.153614488602D+03
    5.112000000000D+05-3.539025783539D-08 1.850562417661D+00-2.235174179077D-08
    9.628838978764D-01 3.583125000000D+02-2.346590406669D+00-8.527855219400D-09
   -1.742929742877D-10 1.000000000000D+00 2.418000000000D+03 0.000000000000D+00
    2.000000000000D+00 0.000000000000D+00-8.847564458847D-09 9.310000000000D+02
    5.040180000000D+05 4.000000000000D+00
16 26  5 15 22  0  0.0 2.637393772602D-04 6.934897101019D-12 0.000000000000D+00
    8.300000000000D+01 7.978125000000D+01 4.165173496195D-09 1.837904134233D+00
    3.948807716370D-06 1.499139249790D-02 1.381337642670D-05 5.153691059113D+03
    5.112000000000D+05-2.868473529816D-07-2.004314699638D-01-2.328306436539D-07
    9.583847035641D-01 1.131562500000D+02 9.342540161384D-01-7.790324498285D-09
   -4.310893851747D-10 1.000000000000D+00 2.418000000000D+03 0.000000000000D+00
    2.000000000000D+00 0.000000000000D+00-1.024454832077D-08 8.300000000000D+01
    5.040000000000D+05
18 26  5 15 22  0  0.0-3.516967408359D-04 9.322320693173D-12 0.000000000000D+00
    1.320000000000D+02-9.934375000000D+01 4.561975738887D-09-1.215880248304D+00
   -5.219131708145D-06 5.973940133117D-03 1.043081283569D-06 5.153627117157D+03
    5.112000000000D+05 3.166496753693D-08 1.827309023190D+00-1.303851604462D-08
    9.709561408606D-01 3.601250000000D+02-2.872810622722D+00-8.470352824194D-09
   -1.157191058795D-10 1.000000000000D+00 2.418000000000D+03 0.000000000000D+00
    2.000000000000D+00 0.000000000000D+00-8.381903000000D-09 3.880000000000D+02
    5.040300000000D+05 4.000000000000D+00
21 26  5 15 22  0  0.0 4.142657853663D-04-1.023181539495D-12 0.000000000000D+00
    9.300000000000D+01-1.101562500000D+02 4.255177245212D-09 3.107413203821D+00
   -5.666166543961D-06 7.806163048372D-04 1.170858740807D-05 5.153557632446D+03
    5.112000000000D+05-2.793967723846D-08 2.874675404398D+00-1.303851604462D-08
    9.639513789584D-01 1.565312500000D+02-1.534567330260D-01-7.768537876499D-09
    1.285767843106D-10 1.000000000000D+00 2.418000000000D+03 0.000000000000D+00
    2.000000000000D+00 0.000000000000D+00-9.778887033463D-09 6.050000000000D+02
    5.040290000000D+05 4.000000000000D+00
25 26  5 15 22  0  0.0 4.224027507007D-04-2.955857780762D-12 0.000000000000D+00
    5.000000000000D+00 6.143750000000D+01 4.256963033883D-09-2.832185687559D+00
    3.203749656677D-06 1.285617705435D-02 1.243688166142D-05 5.153701419830D+03
    5.112000000000D+05 1.266598701477D-07-3.118770300616D-01-8.195638656616D-08
    9.475906429767D-01 1.302500000000D+02 1.160968159670D+00-7.559600601994D-09
   -4.346609625166D-10 1.000000000000D+00 2.418000000000D+03 0.000000000000D+00
    2.000000000000D+00 0.000000000000D+00 5.587935447693D-09 5.000000000000D+00
    5.040200000000D+05 4.000000000000D+00
26 26  5 15 22  0  0.0-3.653788007796D-04-3.979039320257D-12 0.000000000000D+00
    7.400000000000D+01 4.140625000000D+01 4.821272253913D-09 2.616198418640D+00
    2.013519406319D-06 1.105974416714D-02 1.304037868977D-05 5.153762599945D+03
    5.112000000000D+05 0.000000000000D+00-3.877512265036D-01-2.048909664154D-07
    9.282824942576D-01 1.084687500000D+02 7.147286227903D-01-7.916044020722D-09
   -5.793098448660D-10 1.000000000000D+00 2.418000000000D+03 0.000000000000D+00
    2.000000000000D+00 0.000000000000D+00 6.519258022308D-09 7.400000000000D+01
    5.040210000000D+05 4.000000000000D+00
